ONEWEB-0331             
1 49198U 21083N   25230.47596040  .00000157  00000+0  36449-3 0  9993
2 49198  87.9143  35.5653 0001930 103.9577 256.1770 13.18686184190113
ONEWEB-0333             
1 49199U 21083P   25230.41041261  .00000469  00000+0  12487-2 0  9999
2 49199  87.8981  20.4152 0001875  93.6760 266.4583 13.13470745191168
ONEWEB-0334             
1 49200U 21083Q   25230.34262859 -.00000024  00000+0 -91086-4 0  9995
2 49200  87.9291 334.8196 0001977  68.7433 291.3911 13.20772892196814
ONEWEB-0335             
1 49201U 21083R   25230.40533397  .00000400  00000+0  10600-2 0  9998
2 49201  87.8983  20.4033 0001897 100.1311 260.0032 13.13469977191177
ONEWEB-0336             
1 49202U 21083S   25230.45272622 -.00000192  00000+0 -56204-3 0  9996
2 49202  87.8985  20.3878 0001929  94.2394 265.8955 13.13470202191176
ONEWEB-0337             
1 49203U 21083T   25230.46273911 -.00000047  00000+0 -16244-3 0  9999
2 49203  87.8993  20.3872 0001706 101.8008 258.3313 13.13472002191175
ONEWEB-0338             
1 49204U 21083U   25230.84769897 -.00000032  00000+0 -11025-3 0  9991
2 49204  87.9300 334.7154 0001802  89.7685 270.3655 13.20771904198201
ONEWEB-0339             
1 49205U 21083V   25230.39517789  .00000253  00000+0  65857-3 0  9998
2 49205  87.8990  20.3858 0001651  94.1866 265.9452 13.13470872191141
